STARLINK-3086           
1 49178U 21082BA  26068.88503340 -.00000174  00000+0 -68269-5 0  9994
2 49178  69.9985 293.9514 0002948 264.3590  95.7233 14.98327420247161
SATELIOT_4              
1 60537U 24149BX  26068.74229552  .00002907  00000+0  26256-3 0  9990
2 60537  97.6789 145.1106 0002390  45.2073 314.9342 14.96254023 85108
