[{"OBJECT_NAME":"STARLINK-3086","OBJECT_ID":"2021-082BA","EPOCH":"2026-03-09T21:14:26.885760","MEAN_MOTION":14.9832742,"ECCENTRICITY":0.00029477,"INCLINATION":69.9985,"RA_OF_ASC_NODE":293.9514,"ARG_OF_PERICENTER":264.359,"MEAN_ANOMALY":95.7233,"EPHEMERIS_TYPE":0,"CLASSIFICATION_TYPE":"U","NORAD_CAT_ID":49178,"ELEMENT_SET_NO":999,"REV_AT_EPOCH":24716,"BSTAR":-6.826906e-6,"MEAN_MOTION_DOT":-1.74e-6,"MEAN_MOTION_DDOT":0},{"OBJECT_NAME":"SATELIOT_4","OBJECT_ID":"2024-149BX","EPOCH":"2026-03-09T17:48:54.333792","MEAN_MOTION":14.96254023,"ECCENTRICITY":0.00023903,"INCLINATION":97.6789,"RA_OF_ASC_NODE":145.1106,"ARG_OF_PERICENTER":45.2073,"MEAN_ANOMALY":314.9342,"EPHEMERIS_TYPE":0,"CLASSIFICATION_TYPE":"U","NORAD_CAT_ID":60537,"ELEMENT_SET_NO":999,"REV_AT_EPOCH":8510,"BSTAR":0.00026256084,"MEAN_MOTION_DOT":2.907e-5,"MEAN_MOTION_DDOT":0}]
